start=new Date('2022-09-04T00:00:00.000Z').valueOf();
sats=[{"ELEMENT_SET_NO":"999","INCLINATION":"53.0538","REV_AT_EPOCH":"8431","EPHEMERIS_TYPE":"0","NORAD_CAT_ID":"47730","ECCENTRICITY":"0.00016150","GP_ID":"211669489","COUNTRY_CODE":"US","TLE_LINE2":"2 47730  53.0538 215.2458 0001615  61.3384 298.7767 15.06406949 84318","MEAN_ANOMALY":"298.7767","MEAN_ELEMENT_THEORY":"SGP4","TIME_SYSTEM":"UTC","BSTAR":"0.00003788600000","FILE":"3556957","REF_FRAME":"TEME","LAUNCH_DATE":"2021-03-04","MEAN_MOTION":"15.06406949","OBJECT_NAME":"STARLINK-2140","OBJECT_ID":"2021-017J","CLASSIFICATION_TYPE":"U","APOAPSIS":"548.311","RA_OF_ASC_NODE":"215.2458","PERIAPSIS":"546.074","PERIOD":"95.592","RCS_SIZE":"LARGE","TLE_LINE1":"1 47730U 21017J   22246.91052501  .00000283  00000-0  37886-4 0  9990","SITE":"AFETR","DECAY_DATE":null,"OBJECT_TYPE":"PAYLOAD","MEAN_MOTION_DDOT":"0.0000000000000","EPOCH":"2022-09-03T21:51:09.360864","CENTER_NAME":"EARTH","ARG_OF_PERICENTER":"61.3384","MEAN_MOTION_DOT":"0.00000283","SEMIMAJOR_AXIS":"6925.327"},{"MEAN_ELEMENT_THEORY":"SGP4","MEAN_ANOMALY":"296.7916","TIME_SYSTEM":"UTC","FILE":"3556957","BSTAR":"0.00016630000000","REF_FRAME":"TEME","ECCENTRICITY":"0.00017640","GP_ID":"211669739","COUNTRY_CODE":"US","TLE_LINE2":"2 47731  53.0545 210.2189 0001764  63.3254 296.7916 15.06403282 84395","EPHEMERIS_TYPE":"0","NORAD_CAT_ID":"47731","ELEMENT_SET_NO":"999","INCLINATION":"53.0545","REV_AT_EPOCH":"8439","EPOCH":"2022-09-03T21:59:46.666176","CENTER_NAME":"EARTH","ARG_OF_PERICENTER":"63.3254","MEAN_MOTION_DOT":"0.00002196","SEMIMAJOR_AXIS":"6925.338","TLE_LINE1":"1 47731U 21017K   22246.91651234  .00002196  00000-0  16630-3 0  9997","RCS_SIZE":"LARGE","SITE":"AFETR","DECAY_DATE":null,"OBJECT_TYPE":"PAYLOAD","MEAN_MOTION_DDOT":"0.0000000000000","PERIOD":"95.592","LAUNCH_DATE":"2021-03-04","MEAN_MOTION":"15.06403282","OBJECT_ID":"2021-017K","OBJECT_NAME":"STARLINK-2141","APOAPSIS":"548.425","CLASSIFICATION_TYPE":"U","RA_OF_ASC_NODE":"210.2189","PERIAPSIS":"545.982"},{"MEAN_MOTION_DDOT":"0.0000000000000","OBJECT_TYPE":"PAYLOAD","DECAY_DATE":null,"SITE":"AFETR","TLE_LINE1":"1 47732U 21017L   22246.88933890 -.00009925  00000-0 -64737-3 0  9995","RCS_SIZE":"LARGE","SEMIMAJOR_AXIS":"6925.189","MEAN_MOTION_DOT":"-0.00009925","ARG_OF_PERICENTER":"73.1374","CENTER_NAME":"EARTH","EPOCH":"2022-09-03T21:20:38.880960","RA_OF_ASC_NODE":"125.5839","PERIAPSIS":"545.850","CLASSIFICATION_TYPE":"U","APOAPSIS":"548.257","OBJECT_NAME":"STARLINK-2142","OBJECT_ID":"2021-017L","MEAN_MOTION":"15.06452193","LAUNCH_DATE":"2021-03-04","PERIOD":"95.589","TLE_LINE2":"2 47732  53.0544 125.5839 0001738  73.1374 286.9806 15.06452193 85573","COUNTRY_CODE":"US","GP_ID":"211670991","ECCENTRICITY":"0.00017380","REF_FRAME":"TEME","BSTAR":"-0.00064737000000","FILE":"3556957","TIME_SYSTEM":"UTC","MEAN_ELEMENT_THEORY":"SGP4","MEAN_ANOMALY":"286.9806","REV_AT_EPOCH":"8557","ELEMENT_SET_NO":"999","INCLINATION":"53.0544","NORAD_CAT_ID":"47732","EPHEMERIS_TYPE":"0"},{"LAUNCH_DATE":"2021-03-04","MEAN_MOTION":"15.06399955","OBJECT_ID":"2021-017M","OBJECT_NAME":"STARLINK-2143","APOAPSIS":"548.275","CLASSIFICATION_TYPE":"U","RA_OF_ASC_NODE":"222.9481","PERIAPSIS":"546.152","PERIOD":"95.592","TLE_LINE1":"1 47733U 21017M   22246.30741960  .00000383  00000-0  44595-4 0  9996","RCS_SIZE":"LARGE","DECAY_DATE":null,"SITE":"AFETR","OBJECT_TYPE":"PAYLOAD","MEAN_MOTION_DDOT":"0.0000000000000","EPOCH":"2022-09-03T07:22:41.053440","CENTER_NAME":"EARTH","ARG_OF_PERICENTER":"68.2211","MEAN_MOTION_DOT":"0.00000383","SEMIMAJOR_AXIS":"6925.349","INCLINATION":"53.0549","ELEMENT_SET_NO":"999","REV_AT_EPOCH":"8420","EPHEMERIS_TYPE":"0","NORAD_CAT_ID":"47733","ECCENTRICITY":"0.00015330","GP_ID":"211634704","COUNTRY_CODE":"US","TLE_LINE2":"2 47733  53.0549 222.9481 0001533  68.2211 291.8941 15.06399955 84202","MEAN_ANOMALY":"291.8941","MEAN_ELEMENT_THEORY":"SGP4","TIME_SYSTEM":"UTC","FILE":"3556494","BSTAR":"0.00004459500000","REF_FRAME":"TEME"},{"REV_AT_EPOCH":"8440","INCLINATION":"53.0542","ELEMENT_SET_NO":"999","NORAD_CAT_ID":"47734","EPHEMERIS_TYPE":"0","GP_ID":"211669990","COUNTRY_CODE":"US","TLE_LINE2":"2 47734  53.0542 210.1831 0001614  77.8694 282.2476 15.06394975 84401","ECCENTRICITY":"0.00016140","REF_FRAME":"TEME","MEAN_ELEMENT_THEORY":"SGP4","MEAN_ANOMALY":"282.2476","TIME_SYSTEM":"UTC","BSTAR":"0.00005816800000","FILE":"3556957","RA_OF_ASC_NODE":"210.1831","PERIAPSIS":"546.111","LAUNCH_DATE":"2021-03-04","MEAN_MOTION":"15.06394975","OBJECT_NAME":"STARLINK-2144","OBJECT_ID":"2021-017N","APOAPSIS":"548.347","CLASSIFICATION_TYPE":"U","PERIOD":"95.592","SITE":"AFETR","DECAY_DATE":null,"OBJECT_TYPE":"PAYLOAD","MEAN_MOTION_DDOT":"0.0000000000000","RCS_SIZE":"LARGE","TLE_LINE1":"1 47734U 21017N   22246.92389455  .00000585  00000-0  58168-4 0  9997","ARG_OF_PERICENTER":"77.8694","MEAN_MOTION_DOT":"0.00000585","SEMIMAJOR_AXIS":"6925.364","EPOCH":"2022-09-03T22:10:24.489120","CENTER_NAME":"EARTH"},{"EPHEMERIS_TYPE":"0","NORAD_CAT_ID":"47735","ELEMENT_SET_NO":"999","INCLINATION":"53.0541","REV_AT_EPOCH":"8542","FILE":"3556957","BSTAR":"-0.00002855100000","MEAN_ANOMALY":"287.6399","MEAN_ELEMENT_THEORY":"SGP4","TIME_SYSTEM":"UTC","REF_FRAME":"TEME","ECCENTRICITY":"0.00017030","TLE_LINE2":"2 47735  53.0541 135.5781 0001703  72.4775 287.6399 15.06397958 85425","GP_ID":"211670240","COUNTRY_CODE":"US","PERIOD":"95.592","OBJECT_NAME":"STARLINK-2146","OBJECT_ID":"2021-017P","CLASSIFICATION_TYPE":"U","APOAPSIS":"548.399","LAUNCH_DATE":"2021-03-04","MEAN_MOTION":"15.06397958","PERIAPSIS":"546.040","RA_OF_ASC_NODE":"135.5781","CENTER_NAME":"EARTH","EPOCH":"2022-09-03T20:58:07.403520","MEAN_MOTION_DOT":"-0.00000707","SEMIMAJOR_AXIS":"6925.355","ARG_OF_PERICENTER":"72.4775","TLE_LINE1":"1 47735U 21017P   22246.87369680 -.00000707  00000-0 -28551-4 0  9991","RCS_SIZE":"LARGE","MEAN_MOTION_DDOT":"0.0000000000000","DECAY_DATE":null,"SITE":"AFETR","OBJECT_TYPE":"PAYLOAD"},{"EPOCH":"2022-09-03T21:23:57.823008","CENTER_NAME":"EARTH","ARG_OF_PERICENTER":"57.1087","MEAN_MOTION_DOT":"-0.00000100","SEMIMAJOR_AXIS":"6925.368","RCS_SIZE":"LARGE","TLE_LINE1":"1 47736U 21017Q   22246.89164147 -.00000100  00000-0  12198-4 0  9991","DECAY_DATE":null,"SITE":"AFETR","OBJECT_TYPE":"PAYLOAD","MEAN_MOTION_DDOT":"0.0000000000000","PERIOD":"95.593","LAUNCH_DATE":"2021-03-04","MEAN_MOTION":"15.06393755","OBJECT_ID":"2021-017Q","OBJECT_NAME":"STARLINK-2147","APOAPSIS":"548.580","CLASSIFICATION_TYPE":"U","RA_OF_ASC_NODE":"200.3310","PERIAPSIS":"545.886","MEAN_ANOMALY":"303.0089","MEAN_ELEMENT_THEORY":"SGP4","TIME_SYSTEM":"UTC","BSTAR":"0.00001219800000","FILE":"3556957","REF_FRAME":"TEME","ECCENTRICITY":"0.00019450","GP_ID":"211670491","COUNTRY_CODE":"US","TLE_LINE2":"2 47736  53.0546 200.3310 0001945  57.1087 303.0089 15.06393755 84579","EPHEMERIS_TYPE":"0","NORAD_CAT_ID":"47736","ELEMENT_SET_NO":"999","INCLINATION":"53.0546","REV_AT_EPOCH":"8457"},{"ARG_OF_PERICENTER":"68.0977","SEMIMAJOR_AXIS":"6852.731","MEAN_MOTION_DOT":"0.00007791","EPOCH":"2022-09-03T20:18:51.617664","CENTER_NAME":"EARTH","OBJECT_TYPE":"PAYLOAD","SITE":"AFETR","DECAY_DATE":null,"MEAN_MOTION_DDOT":"0.0000000000000","RCS_SIZE":"LARGE","TLE_LINE1":"1 47737U 21017R   22246.84643076  .00007791  00000-0  27316-3 0  9999","PERIOD":"94.093","PERIAPSIS":"473.540","RA_OF_ASC_NODE":"103.3268","MEAN_MOTION":"15.30408106","LAUNCH_DATE":"2021-03-04","APOAPSIS":"475.652","CLASSIFICATION_TYPE":"U","OBJECT_ID":"2021-017R","OBJECT_NAME":"STARLINK-2148","REF_FRAME":"TEME","TIME_SYSTEM":"UTC","MEAN_ANOMALY":"292.0186","MEAN_ELEMENT_THEORY":"SGP4","BSTAR":"0.00027316000000","FILE":"3556957","COUNTRY_CODE":"US","GP_ID":"211670734","TLE_LINE2":"2 47737  53.0516 103.3268 0001541  68.0977 292.0186 15.30408106 85932","ECCENTRICITY":"0.00015410","NORAD_CAT_ID":"47737","EPHEMERIS_TYPE":"0","REV_AT_EPOCH":"8593","ELEMENT_SET_NO":"999","INCLINATION":"53.0516"},{"CENTER_NAME":"EARTH","EPOCH":"2022-09-03T06:26:59.963712","MEAN_MOTION_DOT":"0.00001163","SEMIMAJOR_AXIS":"6925.330","ARG_OF_PERICENTER":"67.5839","TLE_LINE1":"1 47738U 21017S   22246.26874958  .00001163  00000-0  96968-4 0  9998","RCS_SIZE":"LARGE","MEAN_MOTION_DDOT":"0.0000000000000","SITE":"AFETR","DECAY_DATE":null,"OBJECT_TYPE":"PAYLOAD","PERIOD":"95.592","OBJECT_NAME":"STARLINK-2149","OBJECT_ID":"2021-017S","APOAPSIS":"548.508","CLASSIFICATION_TYPE":"U","LAUNCH_DATE":"2021-03-04","MEAN_MOTION":"15.06406173","RA_OF_ASC_NODE":"203.3832","PERIAPSIS":"545.881","FILE":"3556494","BSTAR":"0.00009696800000","MEAN_ANOMALY":"292.5351","MEAN_ELEMENT_THEORY":"SGP4","TIME_SYSTEM":"UTC","REF_FRAME":"TEME","ECCENTRICITY":"0.00018970","TLE_LINE2":"2 47738  53.0536 203.3832 0001897  67.5839 292.5351 15.06406173 84470","GP_ID":"211635453","COUNTRY_CODE":"US","EPHEMERIS_TYPE":"0","NORAD_CAT_ID":"47738","ELEMENT_SET_NO":"999","INCLINATION":"53.0536","REV_AT_EPOCH":"8447"},{"NORAD_CAT_ID":"47739","EPHEMERIS_TYPE":"0","REV_AT_EPOCH":"8414","ELEMENT_SET_NO":"999","INCLINATION":"53.0525","REF_FRAME":"TEME","FILE":"3556494","BSTAR":"-0.00001493300000","MEAN_ELEMENT_THEORY":"SGP4","MEAN_ANOMALY":"285.8201","TIME_SYSTEM":"UTC","TLE_LINE2":"2 47739  53.0525 227.7355 0001526  74.2957 285.8201 15.06396173 84145","GP_ID":"211635207","COUNTRY_CODE":"US","ECCENTRICITY":"0.00015260","PERIOD":"95.592","RA_OF_ASC_NODE":"227.7355","PERIAPSIS":"546.168","OBJECT_NAME":"STARLINK-2150","OBJECT_ID":"2021-017T","APOAPSIS":"548.282","CLASSIFICATION_TYPE":"U","LAUNCH_DATE":"2021-03-04","MEAN_MOTION":"15.06396173","MEAN_MOTION_DOT":"-0.00000504","SEMIMAJOR_AXIS":"6925.360","ARG_OF_PERICENTER":"74.2957","CENTER_NAME":"EARTH","EPOCH":"2022-09-03T08:33:40.713408","MEAN_MOTION_DDOT":"0.0000000000000","DECAY_DATE":null,"SITE":"AFETR","OBJECT_TYPE":"PAYLOAD","RCS_SIZE":"LARGE","TLE_LINE1":"1 47739U 21017T   22246.35672122 -.00000504  00000-0 -14933-4 0  9990"}];
